{"type": "FeatureCollection", "features": [ {"type": "Feature", "properties": {"norad_id": 37081, "name": "FENGYUN 1C DEB", "group": "fengyun-1c-debris", "lat": 60.36339012596109, "lon": -28.16231985351208, "alt_km": 935.1358177799311, "timestamp": "2025-12-09T20:37:09.576408+00:00", "meta": {"OBJECT_NAME": "FENGYUN 1C DEB", "OBJECT_ID": "1999-025EFR", "EPOCH": "2025-12-04T16:05:13.028352", "MEAN_MOTION": 14.13719832, "ECCENTRICITY": 0.026348, "INCLINATION": 98.7084, "RA_OF_ASC_NODE": 131.1485, "ARG_OF_PERICENTER": 11.9086, "MEAN_ANOMALY": 348.8157, "EPHEMERIS_TYPE": 0, "CLASSIFICATION_TYPE": "U", "NORAD_CAT_ID": 37081, "ELEMENT_SET_NO": 999, "REV_AT_EPOCH": 58460, "BSTAR": 0.0070093, "MEAN_MOTION_DOT": 0.00018467, "MEAN_MOTION_DDOT": 0}, "tle": {"line1": "1 37081U 99025EFR 25338.67028968  .00018467  00000+0  70093-2 0  9997", "line2": "2 37081  98.7084 131.1485 0263480  11.9086 348.8157 14.13719832584606"}}, "geometry": {"type": "Point", "coordinates": [-28.16231985351208, 60.36339012596109]}}, {"type": "Feature", "properties": {"norad_id": 37400, "name": "FENGYUN 1C DEB", "group": "fengyun-1c-debris", "lat": 50.753686564545575, "lon": 170.5109779733235, "alt_km": 1018.7632407148203, "timestamp": "2025-12-09T20:37:09.576418+00:00", "meta": {"OBJECT_NAME": "FENGYUN 1C DEB", "OBJECT_ID": "1999-025EFS", "EPOCH": "2025-12-07T19:03:00.391392", "MEAN_MOTION": 13.63635765, "ECCENTRICITY": 0.04016177, "INCLINATION": 98.8381, "RA_OF_ASC_NODE": 179.6076, "ARG_OF_PERICENTER": 149.5737, "MEAN_ANOMALY": 212.9391, "EPHEMERIS_TYPE": 0, "CLASSIFICATION_TYPE": "U", "NORAD_CAT_ID": 37400, "ELEMENT_SET_NO": 999, "REV_AT_EPOCH": 80126, "BSTAR": 0.0007701665, "MEAN_MOTION_DOT": 1.017e-05, "MEAN_MOTION_DDOT": 0}, "tle": {"line1": "1 37400U 99025EFS 25341.79375453  .00001017  00000+0  77017-3 0  9990", "line2": "2 37400  98.8381 179.6076 0401617 149.5737 212.9391 13.63635765801263"}}, "geometry": {"type": "Point", "coordinates": [170.5109779733235, 50.753686564545575]}}, {"type": "Feature", "properties": {"norad_id": 37404, "name": "FENGYUN 1C DEB", "group": "fengyun-1c-debris", "lat": -19.215108251879624, "lon": 163.80823021959085, "alt_km": 763.4161895089819, "timestamp": "2025-12-09T20:37:09.576429+00:00", "meta": {"OBJECT_NAME": "FENGYUN 1C DEB", "OBJECT_ID": "1999-025EFW", "EPOCH": "2025-12-09T06:22:40.336896", "MEAN_MOTION": 14.31624398, "ECCENTRICITY": 0.0044367, "INCLINATION": 98.4518, "RA_OF_ASC_NODE": 346.2011, "ARG_OF_PERICENTER": 172.4826, "MEAN_ANOMALY": 210.0832, "EPHEMERIS_TYPE": 0, "CLASSIFICATION_TYPE": "U", "NORAD_CAT_ID": 37404, "ELEMENT_SET_NO": 999, "REV_AT_EPOCH": 82691, "BSTAR": 0.0010617, "MEAN_MOTION_DOT": 2.817e-05, "MEAN_MOTION_DDOT": 0}, "tle": {"line1": "1 37404U 99025EFW 25343.26574464  .00002817  00000+0  10617-2 0  9992", "line2": "2 37404  98.4518 346.2011 0044367 172.4826 210.0832 14.31624398826919"}}, "geometry": {"type": "Point", "coordinates": [163.80823021959085, -19.215108251879624]}}, {"type": "Feature", "properties": {"norad_id": 37406, "name": "FENGYUN 1C DEB", "group": "fengyun-1c-debris", "lat": 43.23852723916583, "lon": -151.83095233459144, "alt_km": 943.1152038708451, "timestamp": "2025-12-09T20:37:09.576439+00:00", "meta": {"OBJECT_NAME": "FENGYUN 1C DEB", "OBJECT_ID": "1999-025EFY", "EPOCH": "2025-12-08T10:49:08.279328", "MEAN_MOTION": 14.0426894, "ECCENTRICITY": 0.01499328, "INCLINATION": 98.443, "RA_OF_ASC_NODE": 214.8876, "ARG_OF_PERICENTER": 278.7211, "MEAN_ANOMALY": 208.0875, "EPHEMERIS_TYPE": 0, "CLASSIFICATION_TYPE": "U", "NORAD_CAT_ID": 37406, "ELEMENT_SET_NO": 999, "REV_AT_EPOCH": 63172, "BSTAR": 0.0020822256, "MEAN_MOTION_DOT": 3.616e-05, "MEAN_MOTION_DDOT": 0}, "tle": {"line1": "1 37406U 99025EFY 25342.45079027  .00003616  00000+0  20822-2 0  9996", "line2": "2 37406  98.4430 214.8876 0149932 278.7211 208.0875 14.04268940631729"}}, "geometry": {"type": "Point", "coordinates": [-151.83095233459144, 43.23852723916583]}}, {"type": "Feature", "properties": {"norad_id": 37415, "name": "FENGYUN 1C DEB", "group": "fengyun-1c-debris", "lat": -37.54973706997765, "lon": -95.01969677577615, "alt_km": 882.8065591641216, "timestamp": "2025-12-09T20:37:09.576449+00:00", "meta": {"OBJECT_NAME": "FENGYUN 1C DEB", "OBJECT_ID": "1999-025EGH", "EPOCH": "2025-12-08T13:21:24.699168", "MEAN_MOTION": 13.52085555, "ECCENTRICITY": 0.0285076, "INCLINATION": 98.9817, "RA_OF_ASC_NODE": 90.7824, "ARG_OF_PERICENTER": 192.9583, "MEAN_ANOMALY": 166.412, "EPHEMERIS_TYPE": 0, "CLASSIFICATION_TYPE": "U", "NORAD_CAT_ID": 37415, "ELEMENT_SET_NO": 999, "REV_AT_EPOCH": 62265, "BSTAR": 0.00090162, "MEAN_MOTION_DOT": 7.27e-06, "MEAN_MOTION_DDOT": 0}, "tle": {"line1": "1 37415U 99025EGH 25342.55653587  .00000727  00000+0  90162-3 0  9991", "line2": "2 37415  98.9817  90.7824 0285076 192.9583 166.4120 13.52085555622659"}}, "geometry": {"type": "Point", "coordinates": [-95.01969677577615, -37.54973706997765]}}, {"type": "Feature", "properties": {"norad_id": 37417, "name": "FENGYUN 1C DEB", "group": "fengyun-1c-debris", "lat": 34.42855822099624, "lon": 162.8227598621959, "alt_km": 897.4075158292717, "timestamp": "2025-12-09T20:37:09.576459+00:00", "meta": {"OBJECT_NAME": "FENGYUN 1C DEB", "OBJECT_ID": "1999-025EGK", "EPOCH": "2025-12-07T06:30:00.629568", "MEAN_MOTION": 14.07380066, "ECCENTRICITY": 0.00782242, "INCLINATION": 98.7964, "RA_OF_ASC_NODE": 334.2107, "ARG_OF_PERICENTER": 276.2736, "MEAN_ANOMALY": 82.9527, "EPHEMERIS_TYPE": 0, "CLASSIFICATION_TYPE": "U", "NORAD_CAT_ID": 37417, "ELEMENT_SET_NO": 999, "REV_AT_EPOCH": 68273, "BSTAR": 0.00064539005, "MEAN_MOTION_DOT": 1.072e-05, "MEAN_MOTION_DDOT": 0}, "tle": {"line1": "1 37417U 99025EGK 25341.27084062  .00001072  00000+0  64539-3 0  9990", "line2": "2 37417  98.7964 334.2107 0078224 276.2736  82.9527 14.07380066682737"}}, "geometry": {"type": "Point", "coordinates": [162.8227598621959, 34.42855822099624]}}, {"type": "Feature", "properties": {"norad_id": 37418, "name": "FENGYUN 1C DEB", "group": "fengyun-1c-debris", "lat": 14.710662863681396, "lon": -125.29504079814618, "alt_km": 1086.6983509569136, "timestamp": "2025-12-09T20:37:09.576470+00:00", "meta": {"OBJECT_NAME": "FENGYUN 1C DEB", "OBJECT_ID": "1999-025EGL", "EPOCH": "2025-12-06T16:12:36.074592", "MEAN_MOTION": 11.95112147, "ECCENTRICITY": 0.10777154, "INCLINATION": 98.6124, "RA_OF_ASC_NODE": 234.8635, "ARG_OF_PERICENTER": 331.8071, "MEAN_ANOMALY": 22.8442, "EPHEMERIS_TYPE": 0, "CLASSIFICATION_TYPE": "U", "NORAD_CAT_ID": 37418, "ELEMENT_SET_NO": 999, "REV_AT_EPOCH": 49412, "BSTAR": 0.0048233577, "MEAN_MOTION_DOT": 1.984e-05, "MEAN_MOTION_DDOT": 0}, "tle": {"line1": "1 37418U 99025EGL 25340.67541753  .00001984  00000+0  48234-2 0  9994", "line2": "2 37418  98.6124 234.8635 1077715 331.8071  22.8442 11.95112147494121"}}, "geometry": {"type": "Point", "coordinates": [-125.29504079814618, 14.710662863681396]}}, {"type": "Feature", "properties": {"norad_id": 37420, "name": "FENGYUN 1C DEB", "group": "fengyun-1c-debris", "lat": 74.52985951487952, "lon": -171.7456328128977, "alt_km": 939.027825111827, "timestamp": "2025-12-09T20:37:09.576481+00:00", "meta": {"OBJECT_NAME": "FENGYUN 1C DEB", "OBJECT_ID": "1999-025EGN", "EPOCH": "2025-12-08T04:40:09.470784", "MEAN_MOTION": 13.9973792, "ECCENTRICITY": 0.00707955, "INCLINATION": 98.8619, "RA_OF_ASC_NODE": 332.3305, "ARG_OF_PERICENTER": 288.8881, "MEAN_ANOMALY": 70.4618, "EPHEMERIS_TYPE": 0, "CLASSIFICATION_TYPE": "U", "NORAD_CAT_ID": 37420, "ELEMENT_SET_NO": 999, "REV_AT_EPOCH": 59701, "BSTAR": 0.00086941135, "MEAN_MOTION_DOT": 1.257e-05, "MEAN_MOTION_DDOT": 0}, "tle": {"line1": "1 37420U 99025EGN 25342.19455406  .00001257  00000+0  86941-3 0  9996", "line2": "2 37420  98.8619 332.3305 0070795 288.8881  70.4618 13.99737920597017"}}, "geometry": {"type": "Point", "coordinates": [-171.7456328128977, 74.52985951487952]}}, {"type": "Feature", "properties": {"norad_id": 37421, "name": "FENGYUN 1C DEB", "group": "fengyun-1c-debris", "lat": -28.90119312686837, "lon": -56.100494816977914, "alt_km": 1265.6728029554197, "timestamp": "2025-12-09T20:37:09.576491+00:00", "meta": {"OBJECT_NAME": "FENGYUN 1C DEB", "OBJECT_ID": "1999-025EGP", "EPOCH": "2025-12-08T14:18:59.473152", "MEAN_MOTION": 13.40522268, "ECCENTRICITY": 0.0408878, "INCLINATION": 98.8881, "RA_OF_ASC_NODE": 297.8318, "ARG_OF_PERICENTER": 95.9007, "MEAN_ANOMALY": 268.8872, "EPHEMERIS_TYPE": 0, "CLASSIFICATION_TYPE": "U", "NORAD_CAT_ID": 37421, "ELEMENT_SET_NO": 999, "REV_AT_EPOCH": 60890, "BSTAR": 0.0009747, "MEAN_MOTION_DOT": 8.4e-06, "MEAN_MOTION_DDOT": 0}, "tle": {"line1": "1 37421U 99025EGP 25342.59652168  .00000840  00000+0  97470-3 0  9991", "line2": "2 37421  98.8881 297.8318 0408878  95.9007 268.8872 13.40522268608901"}}, "geometry": {"type": "Point", "coordinates": [-56.100494816977914, -28.90119312686837]}}, {"type": "Feature", "properties": {"norad_id": 37423, "name": "FENGYUN 1C DEB", "group": "fengyun-1c-debris", "lat": 47.07576598247286, "lon": 24.607033361546495, "alt_km": 881.1341329034203, "timestamp": "2025-12-09T20:37:09.576501+00:00", "meta": {"OBJECT_NAME": "FENGYUN 1C DEB", "OBJECT_ID": "1999-025EGR", "EPOCH": "2025-12-09T10:09:17.471232", "MEAN_MOTION": 14.07540897, "ECCENTRICITY": 0.00494259, "INCLINATION": 98.7863, "RA_OF_ASC_NODE": 33.7554, "ARG_OF_PERICENTER": 168.7001, "MEAN_ANOMALY": 191.529, "EPHEMERIS_TYPE": 0, "CLASSIFICATION_TYPE": "U", "NORAD_CAT_ID": 37423, "ELEMENT_SET_NO": 999, "REV_AT_EPOCH": 63563, "BSTAR": 0.0013631012, "MEAN_MOTION_DOT": 2.282e-05, "MEAN_MOTION_DDOT": 0}, "tle": {"line1": "1 37423U 99025EGR 25343.42311888  .00002282  00000+0  13631-2 0  9995", "line2": "2 37423  98.7863  33.7554 0049425 168.7001 191.5290 14.07540897635631"}}, "geometry": {"type": "Point", "coordinates": [24.607033361546495, 47.07576598247286]}}]}